Total gap duration: 7:57:16.213532
Total gap duration: 7:55:02.689090
STARLINK-6350
1 57226U 23094J   24100.77025835  .00003212  00000+0  25268-3 0  9997
2 57226  43.0039 228.1224 0001400 265.2449  94.8234 15.02539560 42160
Total gap duration: 7:57:16.213532
STARLINK-30242
1 57739U 23131H   24101.10169511  .00054950  00000+0  39962-2 0  9996
2 57739  43.0045 342.3786 0001247 272.2828  87.7872 15.03049973 35027
Total gap duration: 7:57:16.213532
STARLINK-30602
1 58081U 23160G   24101.58335648  .00000776  00000+0  72536-4 0  9990
2 58081  43.0019 273.2593 0001353 261.6312 255.7183 15.02525083 27927
Total gap duration: 7:57:16.213532
STARLINK-3373
1 51122U 22005U   24101.25001157  .02144140  00000+0  79298-1 0  9990
2 51122  53.2169 183.2571 0019845  67.5292  31.6733 15.23465129124574
Total gap duration: 7:55:04.729875
STARLINK-30576
1 58065U 23158Q   24100.70601629  .00001649  00000+0  13713-3 0  9998
2 58065  43.0042 228.6187 0001469 282.9033  77.1645 15.02534461 28382
Total gap duration: 7:57:16.213532
STARLINK-1798
1 46779U 20074AS  24101.54151019  .00008524  00000+0  59008-3 0  9993
2 46779  53.0544 205.7261 0001119  69.7599 290.3510 15.06423326191302
Total gap duration: 7:49:44.399328
STARLINK-4550
1 53570U 22101AV  24101.56686271  .00000842  00000+0  70955-4 0  9998
2 53570  53.2166 308.0255 0001411  78.1067 282.0083 15.08841525 91051
Total gap duration: 7:41:17.740115
STARLINK-3128
1 49441U 21104AK  24101.23429176 -.00000012  00000+0  17314-4 0  9995
2 49441  53.2158 104.6061 0001317  94.3874 265.7269 15.08835512134556
Total gap duration: 7:51:42.837188
STARLINK-1128
1 44931U 20001T   24100.91667824  .00077403  00000+0  22850-2 0  9993
2 44931  53.0490 204.6701 0009462 307.6279 189.8988 15.34269231  5887
Total gap duration: 7:50:51.819722
STARLINK-5554
1 56338U 23058X   24100.93249236 -.00000384  00000+0 -25292-4 0  9998
2 56338  97.6550 102.7405 0003078  79.4395 280.7176 15.01255426 53294
Total gap duration: 7:56:27.417781
STARLINK-3847
1 52333U 22045C   24101.21957000  .00000219  00000+0  31872-4 0  9997
2 52333  53.2166 104.6749 0001480  90.8026 269.3136 15.08839130110189
Total gap duration: 7:55:25.258270
STARLINK-4579
1 53677U 22105AF  24100.95593573  .00000796  00000+0  66547-4 0  9994
2 53677  97.6575 342.7646 0002086  92.5525 267.5938 15.01267044 88405
Total gap duration: 7:56:34.848639
STARLINK-3901
1 52574U 22051AQ  24100.79729266  .00001588  00000+0  11784-3 0  9993
2 52574  53.2209  16.5769 0001842 104.7702 255.3494 15.08839447106071
Total gap duration: 7:57:16.213532
STARLINK-1694
1 46544U 20070N   24101.19780045  .00001598  00000+0  12614-3 0  9993
2 46544  53.0562  57.2658 0001572  94.7014 265.4155 15.06400588194446
Total gap duration: 7:56:10.036300
STARLINK-3970
1 52706U 22053BC  24101.18047461  .00000410  00000+0  43876-4 0  9997
2 52706  53.2213  29.8554 0001939  99.9053 260.2158 15.08838751105431
Total gap duration: 7:55:05.480667
STARLINK-5934
1 56017U 23042AH  24100.78773667  .00001009  00000+0  89763-4 0  9994
2 56017  43.0052 241.0517 0001184 266.0246  94.0461 15.02533731 57922
Total gap duration: 7:57:16.213532
STARLINK-5614
1 55756U 23028R   24101.57305634  .00001103  00000+0  10017-3 0  9990
2 55756  70.0007 204.4697 0003362 268.5049  91.5725 14.98339715 61471
Total gap duration: 7:48:02.258942
STARLINK-6102
1 56093U 23046A   24101.11210952 -.00000066  00000+0  10211-4 0  9998
2 56093  43.0058 355.1867 0001226 268.2918  91.7784 15.02544610 57519
Total gap duration: 7:57:16.213532
STARLINK-5609
1 55348U 23013T   24101.10236339  .00001153  00000+0  10041-3 0  9997
2 55348  43.0021 136.2684 0001096 276.7967  83.2750 15.02534516 67052
Total gap duration: 7:57:16.213532
STARLINK-2166
1 48558U 21041F   24101.20424718  .00007885  00000+0  54738-3 0  9991
2 48558  53.0557  27.2365 0001397  83.8058 276.3090 15.06418430160325
Total gap duration: 7:50:17.194440
STARLINK-31203
1 58869U 24019S   24101.05656264  .00006769  00000+0  22390-3 0  9990
2 58869  42.9964 223.3978 0000967 349.7876  10.2958 15.31879456 12368
Total gap duration: 7:57:16.213532
STARLINK-1274
1 45387U 20019AD  24101.52907355  .00000352  00000+0  42538-4 0  9998
2 45387  53.0560  40.7791 0001431  88.5111 271.6042 15.06398568224752
Total gap duration: 7:55:57.683201
STARLINK-5437
1 54782U 22175AA  24101.58500583  .00013776  00000+0  41099-3 0  9994
2 54782  53.2204 220.1083 0003036 109.3896 250.7436 15.34945232 73463
Total gap duration: 7:55:55.767659
STARLINK-3183
1 51134U 22005AG  24101.19844906  .00006589  00000+0  43153-3 0  9998
2 51134  53.2157 184.7711 0001855  81.8315 278.2887 15.08851683124546
Total gap duration: 7:35:51.160273
STARLINK-6266
1 56542U 23065AR  24100.93675329  .00000112  00000+0  23330-4 0  9997
2 56542  43.0047  60.2305 0001246 276.4176  83.6525 15.02534335 51369
Total gap duration: 7:57:16.213532
STARLINK-1568
1 46080U 20055BF  24101.41577224  .00000233  00000+0  34565-4 0  9994
2 46080  53.0563 351.5610 0001610  85.6011 274.5161 15.06400390203528
Total gap duration: 7:54:07.249721
STARLINK-1718
1 46674U 20073E   24101.34892691  .00001213  00000+0  10030-3 0  9992
2 46674  53.0543 136.5895 0001343  84.9383 275.1759 15.06401165192357
Total gap duration: 7:53:43.858296
STARLINK-4476
1 53419U 22097AH  24101.18231818 -.00000193  00000+0  59944-5 0  9991
2 53419  53.2198   9.8450 0001898  85.1696 274.9513 15.08836570 92712
Total gap duration: 7:54:40.446001
STARLINK-5299
1 55277U 23010J   24101.17020207 -.00000110  00000+0 -14599-5 0  9995
2 55277  70.0012   5.7077 0002737 267.0455  93.0391 14.98330596 67840
Total gap duration: 7:48:53.896442
STARLINK-3627
1 51797U 22017AF  24101.58335648  .00104478  00000+0  22477-2 0  9998
2 51797  53.1543 192.0213 0005434 339.8103 148.8138 15.43823734119287
Total gap duration: 7:54:00.332801
STARLINK-30984
1 58480U 23186H   24100.85323763  .00002995  00000+0  23666-3 0  9999
2 58480  43.0006 264.2666 0001401 277.6277  82.4406 15.02540867 20730
Total gap duration: 7:57:16.213532
STARLINK-3520
1 51741U 22016AD  24100.61056273  .00001675  00000+0  12332-3 0  9998
2 51741  53.2148 217.4190 0001543  90.3604 269.7565 15.08845230118020
Total gap duration: 7:44:25.460842
STARLINK-5148
1 53978U 22125Q   24101.45415808 -.00000193  00000+0  59432-5 0  9998
2 53978  53.2171 113.5331 0001475  89.2165 270.8997 15.08843326 84057
Total gap duration: 7:54:23.896301
STARLINK-30527
1 58007U 23153S   24101.24818736  .00002984  00000+0  12381-3 0  9991
2 58007  43.0057 183.5226 0000292 313.1406  46.9420 15.25920731 30697
Total gap duration: 7:57:16.213532
STARLINK-2462
1 48121U 21027AF  24101.27520318  .00001004  00000+0  86255-4 0  9998
2 48121  53.0555  56.9219 0001544  89.8428 270.2738 15.06401686166892
Total gap duration: 7:53:03.006980
STARLINK-2640
1 48438U 21040L   24101.21441950  .00000199  00000+0  32276-4 0  9990
2 48438  53.0541  77.4614 0001410  89.1901 270.9250 15.06398123162620
Total gap duration: 7:54:23.822755
STARLINK-1340
1 45583U 20025BE  24101.03982378  .00001607  00000+0  31809-4 0  9990
2 45583  53.0557 323.8509 0000712 115.9299 244.1784 15.53833926219735
Total gap duration: 7:56:28.294219
STARLINK-2237
1 48583U 21041AG  24101.52769213 -.00000648  00000+0 -24616-4 0  9991
2 48583  53.0557  35.7848 0001832  88.7764 271.3435 15.06399117160288
Total gap duration: 7:55:53.698510
STARLINK-4513
1 53548U 22101X   24101.30835935 -.00000241  00000+0  29208-5 0  9998
2 53548  53.2199 319.2785 0001472  92.2635 267.8525 15.08833024 90875
Total gap duration: 7:54:04.682808
STARLINK-4743
1 53787U 22111Q   24101.55397978 -.00000056  00000+0  14550-4 0  9998
2 53787  53.2194 168.0175 0001572  98.8966 261.2204 15.08833048 87490
Total gap duration: 7:55:44.202444
STARLINK-1057
1 44762U 19074BB  24100.96329560  .00001545  00000+0  12260-3 0  9999
2 44762  53.0538 103.3214 0002259  89.0019 271.1229 15.06398995243152
Total gap duration: 7:54:06.200200
STARLINK-31591
1 59207U 24046G   24101.46664182 -.00012563  00000+0 -27361-3 0  9994
2 59207  53.1590 172.3595 0001623 104.1264 255.9922 15.42807110  5738
Total gap duration: 7:55:37.660133
STARLINK-5383
1 54827U 22177H   24100.92759981 -.00000071  00000+0  97810-5 0  9990
2 54827  43.0054 330.1880 0000739 253.0307 107.0454 15.02529122 71857
Total gap duration: 7:57:16.213532
STARLINK-1329
1 45531U 20025A   24101.45535860  .00008129  00000+0  56389-3 0  9994
2 45531  53.0547   1.1126 0001435  80.0179 280.0972 15.06404357219255
Total gap duration: 7:54:46.764575
STARLINK-5634
1 55439U 23014BA  24101.15838845  .00003680  00000+0  31612-3 0  9998
2 55439  69.9998  65.7775 0003222 268.6207  91.4583 14.98324333 65499
Total gap duration: 7:47:01.982504
STARLINK-30506
1 58072U 23158X   24101.39398756  .00000670  00000+0  64679-4 0  9997
2 58072  43.0037 224.3173 0001917 286.1367  73.9264 15.02533643 28333
Total gap duration: 7:57:16.213532
STARLINK-3566
1 51880U 22022AE  24101.16801767  .00000957  00000+0  78204-4 0  9999
2 51880  53.2136 264.6261 0001058  78.1826 281.9285 15.08842440117669
Total gap duration: 7:53:29.115186
STARLINK-3684
1 52124U 22029AN  24100.94817694  .00000435  00000+0  45447-4 0  9993
2 52124  53.2203 335.8944 0001470  94.3224 265.7936 15.08834779115303
